{"type": "FeatureCollection", "features": [ {"type": "Feature", "properties": {"norad_id": 35759, "name": "COSMOS 2251 DEB", "group": "cosmos-2251-debris", "lat": -32.98785988487217, "lon": 50.13656931459734, "alt_km": 712.9514836553899, "timestamp": "2025-12-10T23:33:13.214455+00:00", "meta": {"OBJECT_NAME": "COSMOS 2251 DEB", "OBJECT_ID": "1993-036ARD", "EPOCH": "2025-12-09T08:52:32.162880", "MEAN_MOTION": 14.64874402, "ECCENTRICITY": 0.00769193, "INCLINATION": 74.0373, "RA_OF_ASC_NODE": 222.5271, "ARG_OF_PERICENTER": 341.4527, "MEAN_ANOMALY": 18.3839, "EPHEMERIS_TYPE": 0, "CLASSIFICATION_TYPE": "U", "NORAD_CAT_ID": 35759, "ELEMENT_SET_NO": 999, "REV_AT_EPOCH": 66086, "BSTAR": 0.0005052276, "MEAN_MOTION_DOT": 2.787e-05, "MEAN_MOTION_DDOT": 0}, "tle": {"line1": "1 35759U 93036ARD 25343.36981670  .00002787  00000+0  50523-3 0  9998", "line2": "2 35759  74.0373 222.5271 0076919 341.4527  18.3839 14.64874402660862"}}, "geometry": {"type": "Point", "coordinates": [50.13656931459734, -32.98785988487217]}}, {"type": "Feature", "properties": {"norad_id": 35771, "name": "COSMOS 2251 DEB", "group": "cosmos-2251-debris", "lat": -7.618572371337218, "lon": 135.5990554244151, "alt_km": 775.5266033922362, "timestamp": "2025-12-10T23:33:13.214465+00:00", "meta": {"OBJECT_NAME": "COSMOS 2251 DEB", "OBJECT_ID": "1993-036ARR", "EPOCH": "2025-12-01T22:51:30.244896", "MEAN_MOTION": 14.12926683, "ECCENTRICITY": 0.02319351, "INCLINATION": 74.1552, "RA_OF_ASC_NODE": 329.2812, "ARG_OF_PERICENTER": 270.0606, "MEAN_ANOMALY": 87.396, "EPHEMERIS_TYPE": 0, "CLASSIFICATION_TYPE": "U", "NORAD_CAT_ID": 35771, "ELEMENT_SET_NO": 999, "REV_AT_EPOCH": 82708, "BSTAR": 0.0067662276, "MEAN_MOTION_DOT": 0.00016281, "MEAN_MOTION_DDOT": 0}, "tle": {"line1": "1 35771U 93036ARR 25335.95243339  .00016281  00000+0  67662-2 0  9996", "line2": "2 35771  74.1552 329.2812 0231935 270.0606  87.3960 14.12926683827080"}}, "geometry": {"type": "Point", "coordinates": [135.5990554244151, -7.618572371337218]}}, {"type": "Feature", "properties": {"norad_id": 35773, "name": "COSMOS 2251 DEB", "group": "cosmos-2251-debris", "lat": 58.92206147405541, "lon": 135.78044878125877, "alt_km": 651.9452842686487, "timestamp": "2025-12-10T23:33:13.214474+00:00", "meta": {"OBJECT_NAME": "COSMOS 2251 DEB", "OBJECT_ID": "1993-036ART", "EPOCH": "2025-12-10T00:01:47.898912", "MEAN_MOTION": 14.62043555, "ECCENTRICITY": 0.00456736, "INCLINATION": 74.008, "RA_OF_ASC_NODE": 346.0722, "ARG_OF_PERICENTER": 146.9218, "MEAN_ANOMALY": 213.4821, "EPHEMERIS_TYPE": 0, "CLASSIFICATION_TYPE": "U", "NORAD_CAT_ID": 35773, "ELEMENT_SET_NO": 999, "REV_AT_EPOCH": 86799, "BSTAR": 0.00076822314, "MEAN_MOTION_DOT": 3.885e-05, "MEAN_MOTION_DDOT": 0}, "tle": {"line1": "1 35773U 93036ART 25344.00124883  .00003885  00000+0  76822-3 0  9991", "line2": "2 35773  74.0080 346.0722 0045673 146.9218 213.4821 14.62043555867991"}}, "geometry": {"type": "Point", "coordinates": [135.78044878125877, 58.92206147405541]}}, {"type": "Feature", "properties": {"norad_id": 35777, "name": "COSMOS 2251 DEB", "group": "cosmos-2251-debris", "lat": -29.93142612160417, "lon": -44.10235290668816, "alt_km": 1201.3684800252358, "timestamp": "2025-12-10T23:33:13.214483+00:00", "meta": {"OBJECT_NAME": "COSMOS 2251 DEB", "OBJECT_ID": "1993-036ARX", "EPOCH": "2025-12-08T17:08:57.000768", "MEAN_MOTION": 13.41299794, "ECCENTRICITY": 0.04525672, "INCLINATION": 73.7701, "RA_OF_ASC_NODE": 329.172, "ARG_OF_PERICENTER": 224.5904, "MEAN_ANOMALY": 317.2432, "EPHEMERIS_TYPE": 0, "CLASSIFICATION_TYPE": "U", "NORAD_CAT_ID": 35777, "ELEMENT_SET_NO": 999, "REV_AT_EPOCH": 79630, "BSTAR": 0.0009131429, "MEAN_MOTION_DOT": 9.04e-06, "MEAN_MOTION_DDOT": 0}, "tle": {"line1": "1 35777U 93036ARX 25342.71454862  .00000904  00000+0  91314-3 0  9996", "line2": "2 35777  73.7701 329.1720 0452567 224.5904 317.2432 13.41299794796301"}}, "geometry": {"type": "Point", "coordinates": [-44.10235290668816, -29.93142612160417]}}, {"type": "Feature", "properties": {"norad_id": 35784, "name": "COSMOS 2251 DEB", "group": "cosmos-2251-debris", "lat": -27.76548511734, "lon": -78.32467526337192, "alt_km": 701.9616697436086, "timestamp": "2025-12-10T23:33:13.214492+00:00", "meta": {"OBJECT_NAME": "COSMOS 2251 DEB", "OBJECT_ID": "1993-036ASE", "EPOCH": "2025-12-08T14:17:36.853152", "MEAN_MOTION": 14.50025184, "ECCENTRICITY": 0.0042468, "INCLINATION": 74.0364, "RA_OF_ASC_NODE": 97.4864, "ARG_OF_PERICENTER": 229.9837, "MEAN_ANOMALY": 129.7594, "EPHEMERIS_TYPE": 0, "CLASSIFICATION_TYPE": "U", "NORAD_CAT_ID": 35784, "ELEMENT_SET_NO": 999, "REV_AT_EPOCH": 65646, "BSTAR": 0.00067524, "MEAN_MOTION_DOT": 2.619e-05, "MEAN_MOTION_DDOT": 0}, "tle": {"line1": "1 35784U 93036ASE 25342.59556543  .00002619  00000+0  67524-3 0  9990", "line2": "2 35784  74.0364  97.4864 0042468 229.9837 129.7594 14.50025184656469"}}, "geometry": {"type": "Point", "coordinates": [-78.32467526337192, -27.76548511734]}}, {"type": "Feature", "properties": {"norad_id": 35786, "name": "COSMOS 2251 DEB", "group": "cosmos-2251-debris", "lat": 23.87633287358504, "lon": 54.4539556333616, "alt_km": 693.8001538930621, "timestamp": "2025-12-10T23:33:13.214501+00:00", "meta": {"OBJECT_NAME": "COSMOS 2251 DEB", "OBJECT_ID": "1993-036ASG", "EPOCH": "2025-12-09T11:24:46.077120", "MEAN_MOTION": 14.66167214, "ECCENTRICITY": 0.00343345, "INCLINATION": 74.0142, "RA_OF_ASC_NODE": 50.0685, "ARG_OF_PERICENTER": 180.7191, "MEAN_ANOMALY": 179.3935, "EPHEMERIS_TYPE": 0, "CLASSIFICATION_TYPE": "U", "NORAD_CAT_ID": 35786, "ELEMENT_SET_NO": 999, "REV_AT_EPOCH": 73360, "BSTAR": 0.0015474252, "MEAN_MOTION_DOT": 8.565e-05, "MEAN_MOTION_DDOT": 0}, "tle": {"line1": "1 35786U 93036ASG 25343.47553330  .00008565  00000+0  15474-2 0  9993", "line2": "2 35786  74.0142  50.0685 0034334 180.7191 179.3935 14.66167214733601"}}, "geometry": {"type": "Point", "coordinates": [54.4539556333616, 23.87633287358504]}}, {"type": "Feature", "properties": {"norad_id": 35789, "name": "COSMOS 2251 DEB", "group": "cosmos-2251-debris", "lat": -73.98712144210499, "lon": -166.663251756784, "alt_km": 794.8463413439367, "timestamp": "2025-12-10T23:33:13.214510+00:00", "meta": {"OBJECT_NAME": "COSMOS 2251 DEB", "OBJECT_ID": "1993-036ASK", "EPOCH": "2025-12-10T13:56:40.706880", "MEAN_MOTION": 14.35983063, "ECCENTRICITY": 0.00472407, "INCLINATION": 74.0389, "RA_OF_ASC_NODE": 288.3315, "ARG_OF_PERICENTER": 28.3225, "MEAN_ANOMALY": 332.048, "EPHEMERIS_TYPE": 0, "CLASSIFICATION_TYPE": "U", "NORAD_CAT_ID": 35789, "ELEMENT_SET_NO": 999, "REV_AT_EPOCH": 61196, "BSTAR": 0.00023035927, "MEAN_MOTION_DOT": 6.52e-06, "MEAN_MOTION_DDOT": 0}, "tle": {"line1": "1 35789U 93036ASK 25344.58102670  .00000652  00000+0  23036-3 0  9999", "line2": "2 35789  74.0389 288.3315 0047240  28.3225 332.0480 14.35983063611969"}}, "geometry": {"type": "Point", "coordinates": [-166.663251756784, -73.98712144210499]}}, {"type": "Feature", "properties": {"norad_id": 35793, "name": "COSMOS 2251 DEB", "group": "cosmos-2251-debris", "lat": 49.26064416674778, "lon": 83.04391525482956, "alt_km": 628.4389020479593, "timestamp": "2025-12-10T23:33:13.214519+00:00", "meta": {"OBJECT_NAME": "COSMOS 2251 DEB", "OBJECT_ID": "1993-036ASP", "EPOCH": "2025-12-10T12:00:05.903712", "MEAN_MOTION": 14.78584322, "ECCENTRICITY": 0.00027665, "INCLINATION": 74.0407, "RA_OF_ASC_NODE": 64.5844, "ARG_OF_PERICENTER": 128.5432, "MEAN_ANOMALY": 242.5188, "EPHEMERIS_TYPE": 0, "CLASSIFICATION_TYPE": "U", "NORAD_CAT_ID": 35793, "ELEMENT_SET_NO": 999, "REV_AT_EPOCH": 65764, "BSTAR": 0.0028765348, "MEAN_MOTION_DOT": 0.00021082, "MEAN_MOTION_DDOT": 0}, "tle": {"line1": "1 35793U 93036ASP 25344.50006833  .00021082  00000+0  28765-2 0  9993", "line2": "2 35793  74.0407  64.5844 0002766 128.5432 242.5188 14.78584322657640"}}, "geometry": {"type": "Point", "coordinates": [83.04391525482956, 49.26064416674778]}}, {"type": "Feature", "properties": {"norad_id": 35824, "name": "COSMOS 2251 DEB", "group": "cosmos-2251-debris", "lat": -68.40064489150113, "lon": 4.753864784778356, "alt_km": 1091.39822645994, "timestamp": "2025-12-10T23:33:13.214528+00:00", "meta": {"OBJECT_NAME": "COSMOS 2251 DEB", "OBJECT_ID": "1993-036ASW", "EPOCH": "2025-12-08T11:24:31.157568", "MEAN_MOTION": 13.883958, "ECCENTRICITY": 0.02494458, "INCLINATION": 73.8458, "RA_OF_ASC_NODE": 56.1203, "ARG_OF_PERICENTER": 143.0234, "MEAN_ANOMALY": 218.8382, "EPHEMERIS_TYPE": 0, "CLASSIFICATION_TYPE": "U", "NORAD_CAT_ID": 35824, "ELEMENT_SET_NO": 999, "REV_AT_EPOCH": 84168, "BSTAR": 0.0020429183, "MEAN_MOTION_DOT": 3.116e-05, "MEAN_MOTION_DDOT": 0}, "tle": {"line1": "1 35824U 93036ASW 25342.47536062  .00003116  00000+0  20429-2 0  9991", "line2": "2 35824  73.8458  56.1203 0249445 143.0234 218.8382 13.88395800841685"}}, "geometry": {"type": "Point", "coordinates": [4.753864784778356, -68.40064489150113]}}, {"type": "Feature", "properties": {"norad_id": 35825, "name": "COSMOS 2251 DEB", "group": "cosmos-2251-debris", "lat": 46.51494965372736, "lon": 163.00372991353612, "alt_km": 1245.2384625151053, "timestamp": "2025-12-10T23:33:13.214537+00:00", "meta": {"OBJECT_NAME": "COSMOS 2251 DEB", "OBJECT_ID": "1993-036ASX", "EPOCH": "2025-12-06T17:43:31.257408", "MEAN_MOTION": 13.70908059, "ECCENTRICITY": 0.03529553, "INCLINATION": 74.1125, "RA_OF_ASC_NODE": 152.5025, "ARG_OF_PERICENTER": 249.6557, "MEAN_ANOMALY": 106.6316, "EPHEMERIS_TYPE": 0, "CLASSIFICATION_TYPE": "U", "NORAD_CAT_ID": 35825, "ELEMENT_SET_NO": 999, "REV_AT_EPOCH": 82426, "BSTAR": 0.0026115912, "MEAN_MOTION_DOT": 3.599e-05, "MEAN_MOTION_DDOT": 0}, "tle": {"line1": "1 35825U 93036ASX 25340.73855622  .00003599  00000+0  26116-2 0  9999", "line2": "2 35825  74.1125 152.5025 0352955 249.6557 106.6316 13.70908059824269"}}, "geometry": {"type": "Point", "coordinates": [163.00372991353612, 46.51494965372736]}}]}